ONEWEB-0699             
1 61605U 24188M   26197.53654027  .00000490  00000+0  13669-2 0  9997
2 61605  87.8815  30.4166 0002457  97.3257 262.8149 13.10371203 87152
ONEWEB-0700             
1 61606U 24188N   26197.53822399  .00000326  00000+0  89843-3 0  9993
2 61606  87.8832  30.3301 0002478  95.5566 264.5844 13.10369019 87140
ONEWEB-0701             
1 61607U 24188P   26197.55519118 -.00000459  00000+0 -13519-2 0  9993
2 61607  87.8818  30.4134 0002563  99.0777 261.0640 13.10370276 87152
ONEWEB-0702             
1 61608U 24188Q   26197.54639773  .00000232  00000+0  61760-3 0  9992
2 61608  87.8904  15.1449 0002887  92.6499 267.4959 13.11418537 88335
ONEWEB-0704             
1 61609U 24188R   26197.54331536  .00000098  00000+0  24492-3 0  9990
2 61609  87.8820  30.4057 0002869  88.8816 271.2640 13.10368837 87131
ONEWEB-0705             
1 61610U 24188S   26197.54840900 -.00000206  00000+0 -62776-3 0  9992
2 61610  87.8819  30.4107 0002665  72.8174 287.3245 13.10369118 79303
ONEWEB-0706             
1 61611U 24188T   26197.53314720  .00000563  00000+0  15755-2 0  9996
2 61611  87.8817  30.4171 0002415  85.0517 275.0886 13.10370895 87222
ONEWEB-0707             
1 61612U 24188U   26197.53991877  .00000279  00000+0  76391-3 0  9999
2 61612  87.8821  30.4112 0002433  87.6407 272.4998 13.10368619 87168
ONEWEB-0708             
1 61613U 24188V   26197.55857141 -.00000535  00000+0 -15696-2 0  9994
2 61613  87.8813  30.4236 0001985  71.8756 288.2588 13.10370388 87144
