OBJECT_NAME,OBJECT_ID,EPOCH,MEAN_MOTION,ECCENTRICITY,INCLINATION,RA_OF_ASC_NODE,ARG_OF_PERICENTER,MEAN_ANOMALY,EPHEMERIS_TYPE,CLASSIFICATION_TYPE,NORAD_CAT_ID,ELEMENT_SET_NO,REV_AT_EPOCH,BSTAR,MEAN_MOTION_DOT,MEAN_MOTION_DDOT
ONEWEB-0699,2024-188M,2026-07-16T12:52:37.079328,13.10371203,.0002457,87.8815,30.4166,97.3257,262.8149,0,U,61605,999,8715,.13669E-2,.49E-5,0
ONEWEB-0700,2024-188N,2026-07-16T12:55:02.552736,13.10369019,.0002478,87.8832,30.3301,95.5566,264.5844,0,U,61606,999,8714,.89843E-3,.326E-5,0
ONEWEB-0701,2024-188P,2026-07-16T13:19:28.517952,13.10370276,.0002563,87.8818,30.4134,99.0777,261.0640,0,U,61607,999,8715,-.13519E-2,-.459E-5,0
ONEWEB-0702,2024-188Q,2026-07-16T13:06:48.763872,13.11418537,.0002887,87.8904,15.1449,92.6499,267.4959,0,U,61608,999,8833,.6176E-3,.232E-5,0
ONEWEB-0704,2024-188R,2026-07-16T13:02:22.447104,13.10368837,.0002869,87.8820,30.4057,88.8816,271.2640,0,U,61609,999,8713,.24492E-3,.98E-6,0
ONEWEB-0705,2024-188S,2026-07-16T13:09:42.537600,13.10369118,.0002665,87.8819,30.4107,72.8174,287.3245,0,U,61610,999,7930,-.62776E-3,-.206E-5,0
ONEWEB-0706,2024-188T,2026-07-16T12:47:43.918080,13.10370895,.0002415,87.8817,30.4171,85.0517,275.0886,0,U,61611,999,8722,.15755E-2,.563E-5,0
ONEWEB-0707,2024-188U,2026-07-16T12:57:28.981728,13.10368619,.0002433,87.8821,30.4112,87.6407,272.4998,0,U,61612,999,8716,.76391E-3,.279E-5,0
ONEWEB-0708,2024-188V,2026-07-16T13:24:20.569824,13.10370388,.0001985,87.8813,30.4236,71.8756,288.2588,0,U,61613,999,8714,-.15696E-2,-.535E-5,0
